#cP2017  5 16  0  0  0.00000000      96 ORBIT IGS14 HLM  IGS
## 1949 172800.00000000   900.00000000 57889 0.0000000000000
+   31   G01G02G03G05G06G07G08G09G10G11G12G13G14G15G16G17G18
+        G19G20G21G22G23G24G25G26G27G28G29G30G31G32  0  0  0
+          0  0  0  0  0  0  0  0  0  0  0  0  0  0  0  0  0
+          0  0  0  0  0  0  0  0  0  0  0  0  0  0  0  0  0
+          0  0  0  0  0  0  0  0  0  0  0  0  0  0  0  0  0
++         2  2  2  2  1  2  2  2  2  2  2  2  2  2  3  2  2
++         2  2  2  2  2  2  2  2  2  2  2  2  2  2  0  0  0
++         0  0  0  0  0  0  0  0  0  0  0  0  0  0  0  0  0
++         0  0  0  0  0  0  0  0  0  0  0  0  0  0  0  0  0
++         0  0  0  0  0  0  0  0  0  0  0  0  0  0  0  0  0
%c G  cc GPS ccc cccc cccc cccc cccc ccccc ccccc ccccc ccccc
%c cc cc ccc ccc cccc cccc cccc cccc ccccc ccccc ccccc ccccc
%f  1.2500000  1.025000000  0.00000000000  0.000000000000000
%f  0.0000000  0.000000000  0.00000000000  0.000000000000000
%i    0    0    0    0      0      0      0      0         0
%i    0    0    0    0      0      0      0      0         0
/* FINAL ORBIT COMBINATION FROM WEIGHTED AVERAGE OF:        
/* cod emr esa gfz grg jpl mit ngs sio                      
/* REFERENCED TO IGS TIME (IGST) AND TO WEIGHTED MEAN POLE: 
/* PCV:IGS14_1930 OL/AL:FES2004  NONE     Y  ORB:CMB CLK:CMB
*  2017  5 16 17 15  0.00000000
PG01   6683.698692 -18464.999780 -17863.929486     54.739478  5  6  3  21       
PG02 -21449.735887  15356.892310    820.755104    418.405434  8 11  5  98       
PG03  -4605.503341 -17793.710389 -19186.428357   -100.150383  4  7  4  61       
PG05 -16458.546646   7282.753170  19515.183789    -45.746438  5  5  3  97       
PG06 -22859.078519   3575.458324 -13034.686160    351.699391  3  7  3  67       
PG07  -8160.820489 -12901.551453  21912.802252    350.768746  6  6  5  90       
PG08   6442.416081 -23454.395409  10605.179394    -59.944056  7 11  8 146       
PG09  -8624.264896 -22589.638526  10951.185257    364.557032  4  7  7  81       
PG10  24343.656216  10084.360592  -3767.383096    -52.134167  6  6  3  65       
PG11   7478.297418 -23764.897903  -9852.277235   -688.549545  6  8  4           
PG12  -1584.127055  15696.774011 -21563.867740    383.447871  6 10  8  76       
PG13 -12091.158045  17996.942668  15257.519951    -82.011860  3  7  4  93       
PG14  15082.543496  -1059.555738 -21557.372187    -70.939662  7  4  3  86       
PG15  -2687.125757  25257.225243   6923.075928   -350.016906  3  9  6  90       
PG16  17212.379406  -4343.202178  19761.968406     33.358519  5  9  8  78       
PG17 -13551.256589  -9424.530582 -20487.821868   -179.325562  4  6  5 103       
PG18  20905.273487  15497.890055   6409.229519    615.744742  6  9  7  80       
PG19 -15005.374502     37.770246 -22193.939930   -503.442327  4  7  3  92       
PG20   -157.287991  16675.695238  20529.444351    472.451338  2  9  5  93       
PG21  14036.717532   9362.164245  21323.245094   -506.660008  3  3  6  55       
PG22   5992.025204 -14754.302394 -21009.733460      8.078320  5  6  5  94       
PG23  -1279.131636 -26286.792287    469.183772   -211.890646  7 10  6  64       
PG24  -8823.141049  19436.346664 -15739.396050    -34.913749  4  8  2 122       
PG25  13366.715458  18242.951926 -14251.777990   -388.283237  6  7  3 113       
PG26  23214.829983   2033.537352  12819.449822   -503.650631  2  4  5  80       
PG27  12385.901255 -13757.236182  18909.467182    258.729044  5  7  9 100       
PG28 -22297.050535 -14404.195941   -165.248393    613.272391  5  1  5  58       
PG29   5076.791535  24594.036046   8692.090650    603.772616  6  8  6  90       
PG30 -19332.486329  -4141.439570  17792.921187    156.696700  4  5  4  94       
PG31  23814.178346  -4776.520422 -11131.681082    200.716857  6  4  5  95       
PG32  14830.522028   7441.819272 -20731.228126   -415.323095  7  4  5  93       
*  2017  5 16 17 30  0.00000000
PG01   8387.083763 -19385.041056 -16044.204625     54.739896  4  6  3  43       
PG02 -21541.092242  15022.918483  -2023.882585    418.398241  7 11  5  97       
PG03  -2535.359492 -16875.760987 -20362.189271   -100.148709  4  7  5  66       
PG05 -18356.588599   6223.372913  18165.541609    -45.745334  5  6  3 108       
PG06 -21611.576475   2528.649059 -15219.217537    351.703912  3  7  3  74       
PG07  -6063.140196 -14191.364202  21756.504024    350.764604  6  7  6  73       
PG08   6741.742744 -22125.322893  13021.178503    -59.945020  7 10  8  97       
PG09  -8455.566449 -23716.582196   8409.763119    364.564208  4  8  7  94       
PG10  24476.430925  10427.983136   -937.261977    -52.125357  6  6  2  77       
PG11   8302.204466 -24327.791132  -7365.349770   -688.552189  5  8  4  85       
PG12  -3724.562109  14494.560184 -22120.497100    383.446901  5 10  7  90       
PG13 -12140.829246  16119.459846  17177.070030    -82.012744  3  6  4 105       
PG14  15049.017273   1466.207067 -21571.601201    -70.940894  7  5  3  90       
PG15  -3159.294578  24336.511183   9514.529538   -350.017527  3  9  6  94       
PG16  19047.470661  -3158.869742  18292.398041     33.359049  5  8  8  62       
PG17 -13499.271071 -11765.443345 -19311.419345   -179.324165  4  6  5 103       
PG18  20038.110313  15448.388032   8994.254641    615.746026  6  9  7  65       
PG19 -14902.780972  -2431.618298 -22104.438646   -503.441270  4  7  3  79       
PG20  -2437.946296  15865.857857  21017.404659    472.452839  3  8  5 108       
PG21  12184.172316  10744.506197  21812.874507   -506.658455  3  2  6  75       
PG22   8242.019992 -13745.606413 -20937.907729      8.067155  4  5  5  97       
PG23   -934.440578 -26173.755317  -2377.214563   -211.891344  7 10  6  76       
PG24 -10328.108029  20220.607531 -13668.182247    -34.914061  3  8  1 108       
PG25  11775.048795  17592.129932 -16324.937858   -388.289102  6  7  3 112       
PG26  24316.075289   2805.786166  10414.907455   -503.646713  1  4  5  76       
PG27  12638.838220 -11517.630293  20210.233996    258.735032  4  6  9 104       
PG28 -22139.642027 -14513.536383   2740.228968    613.275007  5  1  6  54       
PG29   4895.720448  25431.315902   5962.634385    603.769486  5  8  5  98       
PG30 -17569.041654  -5324.897258  19235.374624    156.695783  4  5  4  94       
PG31  22709.023012  -3893.498028 -13483.356342    200.714661  5  4  6  96       
PG32  14893.735545   9759.664238 -19704.072768   -415.332408  6  5  5  81       
*  2017  5 16 17 45  0.00000000
PG01   9863.324617 -20262.093435 -13947.270839     54.740400  4  6  3  81       
PG02 -21401.830128  14485.040569  -4832.760590    418.391382  7 11  5  85       
PG03   -316.028554 -16021.835394 -21187.866667   -100.147034  3  6  5  79       
PG05 -20146.114499   5325.944659  16503.452271    -45.743597  5  6  3 105       
PG06 -20235.474720   1276.686770 -17141.634408    351.708390  3  7  3  90       
PG07  -4063.835616 -15570.105047  21230.611448    350.760794  6  8  7  88       
PG08   7144.209842 -20555.575388  15212.657475    -59.946532  6 10  9  94       
PG09  -8306.613142 -24557.099926   5723.369321    364.571393  5  8  7  72       
PG10  24332.056831  10638.767648   1908.883874    -52.116570  6  6  1  58       
PG11   8961.309697 -24681.962639  -4754.226993   -688.554681  5  8  4  57       
PG12  -5969.027777  13397.291785 -22302.748700    383.446165  5 10  7  71       
PG13 -12291.878796  14044.925202  18799.032101    -82.014733  3  5  3 105       
PG14  15144.974868   3968.303239 -21205.429665    -70.941947  6  6  3  88       
PG15  -3727.086926  23157.951072  11937.726355   -350.018129  2  8  5 101       
PG16  20780.645124  -2168.423189  16509.331918     33.359755  5  8  8  70       
PG17 -13564.119382 -13948.244346 -17794.168773   -179.322202  4  6  5 104       
PG18  18912.508889  15338.719576  11429.511916    615.747827  6 10  7  89       
PG19 -14936.420080  -4875.055996 -21643.432403   -503.439682  4  7  4  91       
PG20  -4786.710284  15151.661578  21139.038276    472.454486  2  8  5 105       
PG21  10377.736970  12241.131045  21952.876467   -506.656003  3  1  6  82       
PG22  10507.471531 -12850.799630 -20497.891658      8.056138  4  4  4  98       
PG23   -542.382956 -25757.103784  -5181.443222   -211.891966  7 10  7  50       
PG24 -11600.608086  20923.696843 -11360.210698    -34.915190  3  8  1  97       
PG25   9949.696312  16944.276465 -18122.552416   -388.294985  5  7  3 110       
PG26  25195.432360   3411.807894   7831.937456   -503.642814     4  4   8       
PG27  13027.801360  -9169.371945  21159.828982    258.741018  5  4  8  94       
PG28 -21702.939903 -14475.798329   5598.889931    613.277388  5  2  5  76       
PG29   4741.436512  25962.569170   3130.731039    603.766669  4  8  5 106       
PG30 -15746.056195  -6675.534118  20347.933428    156.694959  4  5  5  86       
PG31  21445.731866  -2805.508123 -15606.472787    200.712611  5  5  6 103       
PG32  15059.750356  11936.247593 -18337.772575   -415.341737  6  5  5  85       
EOF
